{"fetched_at":"2026-04-02T20:35:37Z","count":5048,"tles":[{"name":"ARTEMIS 2","line1":"1 68538U 26069A   26091.94677083  .00000000  00000+0  00000+0 0  9993","line2":"2 68538  28.5261   3.4072 1465270  67.9232  24.0215 13.36122280    08","category":"Other"}]}